<?xml version="1.0" encoding="UTF-8"?>
<ndm xmlns:xsi="http://www.w3.org/2001/XMLSchema-instance" xsi:noNamespaceSchemaLocation="https://sanaregistry.org/r/ndmxml_unqualified/ndmxml-2.0.0-master-2.0.xsd">
<omm id="CCSDS_OMM_VERS" version="2.0">
<header><CREATION_DATE/><ORIGINATOR/></header><body><segment><metadata><OBJECT_NAME>ORBCOMM FM20</OBJECT_NAME><OBJECT_ID>1998-046D</OBJECT_ID><CENTER_NAME>EARTH</CENTER_NAME><REF_FRAME>TEME</REF_FRAME><TIME_SYSTEM>UTC</TIME_SYSTEM><MEAN_ELEMENT_THEORY>SGP4</MEAN_ELEMENT_THEORY></metadata><data><meanElements><EPOCH>2024-06-22T02:50:34.629504</EPOCH><MEAN_MOTION>14.35373364</MEAN_MOTION><ECCENTRICITY>.0000983</ECCENTRICITY><INCLINATION>44.9951</INCLINATION><RA_OF_ASC_NODE>84.1746</RA_OF_ASC_NODE><ARG_OF_PERICENTER>336.3548</ARG_OF_PERICENTER><MEAN_ANOMALY>23.7253</MEAN_ANOMALY></meanElements><tleParameters><EPHEMERIS_TYPE>0</EPHEMERIS_TYPE><CLASSIFICATION_TYPE>U</CLASSIFICATION_TYPE><NORAD_CAT_ID>25416</NORAD_CAT_ID><ELEMENT_SET_NO>999</ELEMENT_SET_NO><REV_AT_EPOCH>35253</REV_AT_EPOCH><BSTAR>.42541E-3</BSTAR><MEAN_MOTION_DOT>.109E-4</MEAN_MOTION_DOT><MEAN_MOTION_DDOT>0</MEAN_MOTION_DDOT></tleParameters></data></segment></body></omm>
<omm id="CCSDS_OMM_VERS" version="2.0">
<header><CREATION_DATE/><ORIGINATOR/></header><body><segment><metadata><OBJECT_NAME>ORBCOMM FM16</OBJECT_NAME><OBJECT_ID>1998-046E</OBJECT_ID><CENTER_NAME>EARTH</CENTER_NAME><REF_FRAME>TEME</REF_FRAME><TIME_SYSTEM>UTC</TIME_SYSTEM><MEAN_ELEMENT_THEORY>SGP4</MEAN_ELEMENT_THEORY></metadata><data><meanElements><EPOCH>2024-06-22T02:48:00.151488</EPOCH><MEAN_MOTION>14.36409072</MEAN_MOTION><ECCENTRICITY>.0004027</ECCENTRICITY><INCLINATION>44.9951</INCLINATION><RA_OF_ASC_NODE>79.6220</RA_OF_ASC_NODE><ARG_OF_PERICENTER>299.0154</ARG_OF_PERICENTER><MEAN_ANOMALY>61.0290</MEAN_ANOMALY></meanElements><tleParameters><EPHEMERIS_TYPE>0</EPHEMERIS_TYPE><CLASSIFICATION_TYPE>U</CLASSIFICATION_TYPE><NORAD_CAT_ID>25417</NORAD_CAT_ID><ELEMENT_SET_NO>999</ELEMENT_SET_NO><REV_AT_EPOCH>35265</REV_AT_EPOCH><BSTAR>.57504E-3</BSTAR><MEAN_MOTION_DOT>.1559E-4</MEAN_MOTION_DOT><MEAN_MOTION_DDOT>0</MEAN_MOTION_DDOT></tleParameters></data></segment></body></omm>
<omm id="CCSDS_OMM_VERS" version="2.0">
<header><CREATION_DATE/><ORIGINATOR/></header><body><segment><metadata><OBJECT_NAME>ORBCOMM FM15</OBJECT_NAME><OBJECT_ID>1998-046F</OBJECT_ID><CENTER_NAME>EARTH</CENTER_NAME><REF_FRAME>TEME</REF_FRAME><TIME_SYSTEM>UTC</TIME_SYSTEM><MEAN_ELEMENT_THEORY>SGP4</MEAN_ELEMENT_THEORY></metadata><data><meanElements><EPOCH>2024-06-22T03:37:40.277568</EPOCH><MEAN_MOTION>14.36123203</MEAN_MOTION><ECCENTRICITY>.000375</ECCENTRICITY><INCLINATION>44.9983</INCLINATION><RA_OF_ASC_NODE>83.6211</RA_OF_ASC_NODE><ARG_OF_PERICENTER>302.8805</ARG_OF_PERICENTER><MEAN_ANOMALY>57.1681</MEAN_ANOMALY></meanElements><tleParameters><EPHEMERIS_TYPE>0</EPHEMERIS_TYPE><CLASSIFICATION_TYPE>U</CLASSIFICATION_TYPE><NORAD_CAT_ID>25418</NORAD_CAT_ID><ELEMENT_SET_NO>999</ELEMENT_SET_NO><REV_AT_EPOCH>35261</REV_AT_EPOCH><BSTAR>.51507E-3</BSTAR><MEAN_MOTION_DOT>.1373E-4</MEAN_MOTION_DOT><MEAN_MOTION_DDOT>0</MEAN_MOTION_DDOT></tleParameters></data></segment></body></omm>
<omm id="CCSDS_OMM_VERS" version="2.0">
<header><CREATION_DATE/><ORIGINATOR/></header><body><segment><metadata><OBJECT_NAME>ORBCOMM FM14</OBJECT_NAME><OBJECT_ID>1998-046G</OBJECT_ID><CENTER_NAME>EARTH</CENTER_NAME><REF_FRAME>TEME</REF_FRAME><TIME_SYSTEM>UTC</TIME_SYSTEM><MEAN_ELEMENT_THEORY>SGP4</MEAN_ELEMENT_THEORY></metadata><data><meanElements><EPOCH>2024-06-21T04:43:15.142656</EPOCH><MEAN_MOTION>14.36310898</MEAN_MOTION><ECCENTRICITY>.0002459</ECCENTRICITY><INCLINATION>44.9972</INCLINATION><RA_OF_ASC_NODE>87.1866</RA_OF_ASC_NODE><ARG_OF_PERICENTER>295.0539</ARG_OF_PERICENTER><MEAN_ANOMALY>65.0053</MEAN_ANOMALY></meanElements><tleParameters><EPHEMERIS_TYPE>0</EPHEMERIS_TYPE><CLASSIFICATION_TYPE>U</CLASSIFICATION_TYPE><NORAD_CAT_ID>25419</NORAD_CAT_ID><ELEMENT_SET_NO>999</ELEMENT_SET_NO><REV_AT_EPOCH>35248</REV_AT_EPOCH><BSTAR>.57502E-3</BSTAR><MEAN_MOTION_DOT>.1555E-4</MEAN_MOTION_DOT><MEAN_MOTION_DDOT>0</MEAN_MOTION_DDOT></tleParameters></data></segment></body></omm>
<omm id="CCSDS_OMM_VERS" version="2.0">
<header><CREATION_DATE/><ORIGINATOR/></header><body><segment><metadata><OBJECT_NAME>ORBCOMM FM13</OBJECT_NAME><OBJECT_ID>1998-046H</OBJECT_ID><CENTER_NAME>EARTH</CENTER_NAME><REF_FRAME>TEME</REF_FRAME><TIME_SYSTEM>UTC</TIME_SYSTEM><MEAN_ELEMENT_THEORY>SGP4</MEAN_ELEMENT_THEORY></metadata><data><meanElements><EPOCH>2024-06-22T04:02:49.054848</EPOCH><MEAN_MOTION>14.35556286</MEAN_MOTION><ECCENTRICITY>.0004676</ECCENTRICITY><INCLINATION>44.9984</INCLINATION><RA_OF_ASC_NODE>87.7094</RA_OF_ASC_NODE><ARG_OF_PERICENTER>281.1474</ARG_OF_PERICENTER><MEAN_ANOMALY>78.8848</MEAN_ANOMALY></meanElements><tleParameters><EPHEMERIS_TYPE>0</EPHEMERIS_TYPE><CLASSIFICATION_TYPE>U</CLASSIFICATION_TYPE><NORAD_CAT_ID>25420</NORAD_CAT_ID><ELEMENT_SET_NO>999</ELEMENT_SET_NO><REV_AT_EPOCH>35259</REV_AT_EPOCH><BSTAR>.49907E-3</BSTAR><MEAN_MOTION_DOT>.1309E-4</MEAN_MOTION_DOT><MEAN_MOTION_DDOT>0</MEAN_MOTION_DDOT></tleParameters></data></segment></body></omm>
<omm id="CCSDS_OMM_VERS" version="2.0">
<header><CREATION_DATE/><ORIGINATOR/></header><body><segment><metadata><OBJECT_NAME>ORBCOMM FM21</OBJECT_NAME><OBJECT_ID>1998-053A</OBJECT_ID><CENTER_NAME>EARTH</CENTER_NAME><REF_FRAME>TEME</REF_FRAME><TIME_SYSTEM>UTC</TIME_SYSTEM><MEAN_ELEMENT_THEORY>SGP4</MEAN_ELEMENT_THEORY></metadata><data><meanElements><EPOCH>2024-06-22T02:55:09.111072</EPOCH><MEAN_MOTION>14.35460763</MEAN_MOTION><ECCENTRICITY>.0002518</ECCENTRICITY><INCLINATION>45.0072</INCLINATION><RA_OF_ASC_NODE>172.3145</RA_OF_ASC_NODE><ARG_OF_PERICENTER>279.4571</ARG_OF_PERICENTER><MEAN_ANOMALY>80.5991</MEAN_ANOMALY></meanElements><tleParameters><EPHEMERIS_TYPE>0</EPHEMERIS_TYPE><CLASSIFICATION_TYPE>U</CLASSIFICATION_TYPE><NORAD_CAT_ID>25475</NORAD_CAT_ID><ELEMENT_SET_NO>999</ELEMENT_SET_NO><REV_AT_EPOCH>34580</REV_AT_EPOCH><BSTAR>.32542E-3</BSTAR><MEAN_MOTION_DOT>.802E-5</MEAN_MOTION_DOT><MEAN_MOTION_DDOT>0</MEAN_MOTION_DDOT></tleParameters></data></segment></body></omm>
<omm id="CCSDS_OMM_VERS" version="2.0">
<header><CREATION_DATE/><ORIGINATOR/></header><body><segment><metadata><OBJECT_NAME>ORBCOMM FM22</OBJECT_NAME><OBJECT_ID>1998-053B</OBJECT_ID><CENTER_NAME>EARTH</CENTER_NAME><REF_FRAME>TEME</REF_FRAME><TIME_SYSTEM>UTC</TIME_SYSTEM><MEAN_ELEMENT_THEORY>SGP4</MEAN_ELEMENT_THEORY></metadata><data><meanElements><EPOCH>2024-06-22T03:39:40.497120</EPOCH><MEAN_MOTION>14.36026018</MEAN_MOTION><ECCENTRICITY>.0003318</ECCENTRICITY><INCLINATION>45.0068</INCLINATION><RA_OF_ASC_NODE>169.2734</RA_OF_ASC_NODE><ARG_OF_PERICENTER>255.1177</ARG_OF_PERICENTER><MEAN_ANOMALY>104.9303</MEAN_ANOMALY></meanElements><tleParameters><EPHEMERIS_TYPE>0</EPHEMERIS_TYPE><CLASSIFICATION_TYPE>U</CLASSIFICATION_TYPE><NORAD_CAT_ID>25476</NORAD_CAT_ID><ELEMENT_SET_NO>999</ELEMENT_SET_NO><REV_AT_EPOCH>34583</REV_AT_EPOCH><BSTAR>.4009E-3</BSTAR><MEAN_MOTION_DOT>.1035E-4</MEAN_MOTION_DOT><MEAN_MOTION_DDOT>0</MEAN_MOTION_DDOT></tleParameters></data></segment></body></omm>
<omm id="CCSDS_OMM_VERS" version="2.0">
<header><CREATION_DATE/><ORIGINATOR/></header><body><segment><metadata><OBJECT_NAME>ORBCOMM FM23</OBJECT_NAME><OBJECT_ID>1998-053C</OBJECT_ID><CENTER_NAME>EARTH</CENTER_NAME><REF_FRAME>TEME</REF_FRAME><TIME_SYSTEM>UTC</TIME_SYSTEM><MEAN_ELEMENT_THEORY>SGP4</MEAN_ELEMENT_THEORY></metadata><data><meanElements><EPOCH>2024-06-22T10:14:40.150176</EPOCH><MEAN_MOTION>14.35510915</MEAN_MOTION><ECCENTRICITY>.0002953</ECCENTRICITY><INCLINATION>45.0074</INCLINATION><RA_OF_ASC_NODE>173.2849</RA_OF_ASC_NODE><ARG_OF_PERICENTER>261.3974</ARG_OF_PERICENTER><MEAN_ANOMALY>98.6538</MEAN_ANOMALY></meanElements><tleParameters><EPHEMERIS_TYPE>0</EPHEMERIS_TYPE><CLASSIFICATION_TYPE>U</CLASSIFICATION_TYPE><NORAD_CAT_ID>25477</NORAD_CAT_ID><ELEMENT_SET_NO>999</ELEMENT_SET_NO><REV_AT_EPOCH>34597</REV_AT_EPOCH><BSTAR>.36437E-3</BSTAR><MEAN_MOTION_DOT>.917E-5</MEAN_MOTION_DOT><MEAN_MOTION_DDOT>0</MEAN_MOTION_DDOT></tleParameters></data></segment></body></omm>

</ndm>
