ORBCOMM FM20            
1 25416U 98046D   24174.11845636  .00001090  00000+0  42541-3 0  9995
2 25416  44.9951  84.1746 0000983 336.3548  23.7253 14.35373364352533
ORBCOMM FM16            
1 25417U 98046E   24174.11666842  .00001559  00000+0  57504-3 0  9991
2 25417  44.9951  79.6220 0004027 299.0154  61.0290 14.36409072352657
ORBCOMM FM15            
1 25418U 98046F   24174.15116062  .00001373  00000+0  51507-3 0  9991
2 25418  44.9983  83.6211 0003750 302.8805  57.1681 14.36123203352611
ORBCOMM FM14            
1 25419U 98046G   24173.19670304  .00001555  00000+0  57502-3 0  9992
2 25419  44.9972  87.1866 0002459 295.0539  65.0053 14.36310898352481
ORBCOMM FM13            
1 25420U 98046H   24174.16862332  .00001309  00000+0  49907-3 0  9993
2 25420  44.9984  87.7094 0004676 281.1474  78.8848 14.35556286352590
ORBCOMM FM21            
1 25475U 98053A   24174.12163323  .00000802  00000+0  32542-3 0  9995
2 25475  45.0072 172.3145 0002518 279.4571  80.5991 14.35460763345808
ORBCOMM FM22            
1 25476U 98053B   24174.15255205  .00001035  00000+0  40090-3 0  9996
2 25476  45.0068 169.2734 0003318 255.1177 104.9303 14.36026018345838
ORBCOMM FM23            
1 25477U 98053C   24174.42685359  .00000917  00000+0  36437-3 0  9992
2 25477  45.0074 173.2849 0002953 261.3974  98.6538 14.35510915345973
